{
  "type": "FeatureCollection",
  "features": [
    {
      "type": "Feature",
      "properties": {
        "norad_id": 38833,
        "name": "GPS BIIF-3  (PRN 24)",
        "group": "gps-ops",
        "lat": 38.954554868960294,
        "lon": -171.70208576687696,
        "alt_km": 19721.725441879422,
        "timestamp": "2025-12-03T22:42:32.894678+00:00",
        "meta_object_name": "GPS BIIF-3  (PRN 24)",
        "meta_object_id": "2012-053A",
        "meta_epoch": "2025-12-01T21:10:58.228896",
        "meta_mean_motion": 2.00564835,
        "meta_eccentricity": 0.01754817,
        "meta_inclination": 53.5559,
        "meta_ra_of_asc_node": 151.6834,
        "meta_arg_of_pericenter": 63.8436,
        "meta_mean_anomaly": 297.9871,
        "meta_ephemeris_type": 0,
        "meta_classification_type": "U",
        "meta_norad_cat_id": 38833,
        "meta_element_set_no": 999,
        "meta_rev_at_epoch": 9548,
        "meta_bstar": 0,
        "meta_mean_motion_dot": 1.16e-06,
        "meta_mean_motion_ddot": 0,
        "tle_line1": "1 38833U 12053A   25335.88261839  .00000116  00000+0  00000+0 0  9995",
        "tle_line2": "2 38833  53.5559 151.6834 0175481  63.8436 297.9871  2.00564835 95485"
      },
      "geometry": {
        "type": "Point",
        "coordinates": [
          -171.70208576687696,
          38.954554868960294
        ]
      }
    },
    {
      "type": "Feature",
      "properties": {
        "norad_id": 39166,
        "name": "GPS BIIF-4  (PRN 27)",
        "group": "gps-ops",
        "lat": 23.234163431270154,
        "lon": 79.19269934308616,
        "alt_km": 20253.506668189024,
        "timestamp": "2025-12-03T22:42:32.894688+00:00",
        "meta_object_name": "GPS BIIF-4  (PRN 27)",
        "meta_object_id": "2013-023A",
        "meta_epoch": "2025-12-02T17:50:49.750368",
        "meta_mean_motion": 2.00565046,
        "meta_eccentricity": 0.0137297,
        "meta_inclination": 54.6608,
        "meta_ra_of_asc_node": 276.9746,
        "meta_arg_of_pericenter": 48.5033,
        "meta_mean_anomaly": 312.6627,
        "meta_ephemeris_type": 0,
        "meta_classification_type": "U",
        "meta_norad_cat_id": 39166,
        "meta_element_set_no": 999,
        "meta_rev_at_epoch": 9194,
        "meta_bstar": 0,
        "meta_mean_motion_dot": -3.8e-07,
        "meta_mean_motion_ddot": 0,
        "tle_line1": "1 39166U 13023A   25336.74363137 -.00000038  00000+0  00000+0 0  9997",
        "tle_line2": "2 39166  54.6608 276.9746 0137297  48.5033 312.6627  2.00565046 91947"
      },
      "geometry": {
        "type": "Point",
        "coordinates": [
          79.19269934308616,
          23.234163431270154
        ]
      }
    },
    {
      "type": "Feature",
      "properties": {
        "norad_id": 39533,
        "name": "GPS BIIF-5  (PRN 30)",
        "group": "gps-ops",
        "lat": 23.11025626238952,
        "lon": -41.062988521992196,
        "alt_km": 20125.01538870916,
        "timestamp": "2025-12-03T22:42:32.894699+00:00",
        "meta_object_name": "GPS BIIF-5  (PRN 30)",
        "meta_object_id": "2014-008A",
        "meta_epoch": "2025-12-02T17:43:01.654176",
        "meta_mean_motion": 2.00573776,
        "meta_eccentricity": 0.00789617,
        "meta_inclination": 53.6297,
        "meta_ra_of_asc_node": 157.3327,
        "meta_arg_of_pericenter": 226.3697,
        "meta_mean_anomaly": 133.0142,
        "meta_ephemeris_type": 0,
        "meta_classification_type": "U",
        "meta_norad_cat_id": 39533,
        "meta_element_set_no": 999,
        "meta_rev_at_epoch": 8574,
        "meta_bstar": 0,
        "meta_mean_motion_dot": 1.12e-06,
        "meta_mean_motion_ddot": 0,
        "tle_line1": "1 39533U 14008A   25336.73821359  .00000112  00000+0  00000+0 0  9995",
        "tle_line2": "2 39533  53.6297 157.3327 0078961 226.3697 133.0142  2.00573776 85746"
      },
      "geometry": {
        "type": "Point",
        "coordinates": [
          -41.062988521992196,
          23.11025626238952
        ]
      }
    },
    {
      "type": "Feature",
      "properties": {
        "norad_id": 39741,
        "name": "GPS BIIF-6  (PRN 06)",
        "group": "gps-ops",
        "lat": -41.187465189385286,
        "lon": -56.17164788439975,
        "alt_km": 20085.633255629844,
        "timestamp": "2025-12-03T22:42:32.894710+00:00",
        "meta_object_name": "GPS BIIF-6  (PRN 06)",
        "meta_object_id": "2014-026A",
        "meta_epoch": "2025-12-02T00:33:52.454592",
        "meta_mean_motion": 2.0056192,
        "meta_eccentricity": 0.00388896,
        "meta_inclination": 56.5877,
        "meta_ra_of_asc_node": 339.1935,
        "meta_arg_of_pericenter": 318.1232,
        "meta_mean_anomaly": 41.6099,
        "meta_ephemeris_type": 0,
        "meta_classification_type": "U",
        "meta_norad_cat_id": 39741,
        "meta_element_set_no": 999,
        "meta_rev_at_epoch": 8458,
        "meta_bstar": 0,
        "meta_mean_motion_dot": -5.7e-07,
        "meta_mean_motion_ddot": 0,
        "tle_line1": "1 39741U 14026A   25336.02352378 -.00000057  00000+0  00000+0 0  9997",
        "tle_line2": "2 39741  56.5877 339.1935 0038889 318.1232  41.6099  2.00561920 84582"
      },
      "geometry": {
        "type": "Point",
        "coordinates": [
          -56.17164788439975,
          -41.187465189385286
        ]
      }
    },
    {
      "type": "Feature",
      "properties": {
        "norad_id": 40105,
        "name": "GPS BIIF-7  (PRN 09)",
        "group": "gps-ops",
        "lat": -48.30151617521163,
        "lon": -32.57520441746051,
        "alt_km": 20237.69137959107,
        "timestamp": "2025-12-03T22:42:32.894720+00:00",
        "meta_object_name": "GPS BIIF-7  (PRN 09)",
        "meta_object_id": "2014-045A",
        "meta_epoch": "2025-12-02T02:40:49.418112",
        "meta_mean_motion": 2.00571797,
        "meta_eccentricity": 0.00329353,
        "meta_inclination": 55.2223,
        "meta_ra_of_asc_node": 96.323,
        "meta_arg_of_pericenter": 119.6015,
        "meta_mean_anomaly": 240.7039,
        "meta_ephemeris_type": 0,
        "meta_classification_type": "U",
        "meta_norad_cat_id": 40105,
        "meta_element_set_no": 999,
        "meta_rev_at_epoch": 8212,
        "meta_bstar": 0,
        "meta_mean_motion_dot": 7e-08,
        "meta_mean_motion_ddot": 0,
        "tle_line1": "1 40105U 14045A   25336.11168308  .00000007  00000+0  00000+0 0  9996",
        "tle_line2": "2 40105  55.2223  96.3230 0032935 119.6015 240.7039  2.00571797 82125"
      },
      "geometry": {
        "type": "Point",
        "coordinates": [
          -32.57520441746051,
          -48.30151617521163
        ]
      }
    },
    {
      "type": "Feature",
      "properties": {
        "norad_id": 40294,
        "name": "GPS BIIF-8  (PRN 03)",
        "group": "gps-ops",
        "lat": -22.238940590900906,
        "lon": 23.023172013581775,
        "alt_km": 20201.656506462507,
        "timestamp": "2025-12-03T22:42:32.894731+00:00",
        "meta_object_name": "GPS BIIF-8  (PRN 03)",
        "meta_object_id": "2014-068A",
        "meta_epoch": "2025-12-02T11:42:10.325664",
        "meta_mean_motion": 2.00564029,
        "meta_eccentricity": 0.00608197,
        "meta_inclination": 56.8498,
        "meta_ra_of_asc_node": 38.5427,
        "meta_arg_of_pericenter": 69.4176,
        "meta_mean_anomaly": 291.2841,
        "meta_ephemeris_type": 0,
        "meta_classification_type": "U",
        "meta_norad_cat_id": 40294,
        "meta_element_set_no": 999,
        "meta_rev_at_epoch": 8126,
        "meta_bstar": 0,
        "meta_mean_motion_dot": -6.5e-07,
        "meta_mean_motion_ddot": 0,
        "tle_line1": "1 40294U 14068A   25336.48761951 -.00000065  00000+0  00000+0 0  9998",
        "tle_line2": "2 40294  56.8498  38.5427 0060819  69.4176 291.2841  2.00564029 81269"
      },
      "geometry": {
        "type": "Point",
        "coordinates": [
          23.023172013581775,
          -22.238940590900906
        ]
      }
    },
    {
      "type": "Feature",
      "properties": {
        "norad_id": 40534,
        "name": "GPS BIIF-9  (PRN 26)",
        "group": "gps-ops",
        "lat": -43.68020762164927,
        "lon": 77.8512460703501,
        "alt_km": 20451.068082187077,
        "timestamp": "2025-12-03T22:42:32.894742+00:00",
        "meta_object_name": "GPS BIIF-9  (PRN 26)",
        "meta_object_id": "2015-013A",
        "meta_epoch": "2025-12-02T02:51:32.874336",
        "meta_mean_motion": 2.00563085,
        "meta_eccentricity": 0.01065801,
        "meta_inclination": 53.1996,
        "meta_ra_of_asc_node": 212.3303,
        "meta_arg_of_pericenter": 38.2186,
        "meta_mean_anomaly": 322.6251,
        "meta_ephemeris_type": 0,
        "meta_classification_type": "U",
        "meta_norad_cat_id": 40534,
        "meta_element_set_no": 999,
        "meta_rev_at_epoch": 7787,
        "meta_bstar": 0,
        "meta_mean_motion_dot": 7.3e-07,
        "meta_mean_motion_ddot": 0,
        "tle_line1": "1 40534U 15013A   25336.11913049  .00000073  00000+0  00000+0 0  9991",
        "tle_line2": "2 40534  53.1996 212.3303 0106580  38.2186 322.6251  2.00563085 77872"
      },
      "geometry": {
        "type": "Point",
        "coordinates": [
          77.8512460703501,
          -43.68020762164927
        ]
      }
    }
  ]
}